{
    "links": {
        "self": "http://www.neowsapp.com/rest/v1/neo/3556018?api_key=iIulBulltgU6a56xZRHN4H3l9WmuAYTsLGpBGhQ2"
    },
    "id": "3556018",
    "neo_reference_id": "3556018",
    "name": "(2011 BP40)",
    "designation": "2011 BP40",
    "nasa_jpl_url": "http://ssd.jpl.nasa.gov/sbdb.cgi?sstr=3556018",
    "absolute_magnitude_h": 25.7,
    "estimated_diameter": {
        "kilometers": {
            "estimated_diameter_min": 0.0192555078,
            "estimated_diameter_max": 0.0430566244
        },
        "meters": {
            "estimated_diameter_min": 19.2555078188,
            "estimated_diameter_max": 43.0566244241
        },
        "miles": {
            "estimated_diameter_min": 0.0119648141,
            "estimated_diameter_max": 0.0267541378
        },
        "feet": {
            "estimated_diameter_min": 63.1742402722,
            "estimated_diameter_max": 141.2618956756
        }
    },
    "is_potentially_hazardous_asteroid": false,
    "close_approach_data": [
        {
            "close_approach_date": "2010-10-23",
            "close_approach_date_full": "2010-Oct-23 00:55",
            "epoch_date_close_approach": 1287795300000,
            "relative_velocity": {
                "kilometers_per_second": "2.8531738654",
                "kilometers_per_hour": "10271.4259154547",
                "miles_per_hour": "6382.2646195224"
            },
            "miss_distance": {
                "astronomical": "0.0433421743",
                "lunar": "16.8601058027",
                "kilometers": "6483896.956448741",
                "miles": "4028906.7458489858"
            },
            "orbiting_body": "Earth"
        }
    ],
    "orbital_data": {
        "orbit_id": "7",
        "orbit_determination_date": "2019-07-17 06:09:28",
        "first_observation_date": "2011-01-30",
        "last_observation_date": "2011-02-04",
        "data_arc_in_days": 5,
        "observations_used": 11,
        "orbit_uncertainty": "8",
        "minimum_orbit_intersection": ".000221722",
        "jupiter_tisserand_invariant": "5.552",
        "epoch_osculation": "2455593.5",
        "eccentricity": ".1537624847582568",
        "semi_major_axis": "1.122937086389133",
        "inclination": ".9153445404624909",
        "ascending_node_longitude": "164.8336622779161",
        "orbital_period": "434.6418741148594",
        "perihelion_distance": ".9502714897587428",
        "perihelion_argument": "236.357380604896",
        "aphelion_distance": "1.295602683019524",
        "perihelion_time": "2455503.184058144082",
        "mean_anomaly": "74.80581371581866",
        "mean_motion": ".8282681017173822",
        "equinox": "J2000",
        "orbit_class": {
            "orbit_class_type": "APO",
            "orbit_class_description": "Near-Earth asteroid orbits which cross the Earth’s orbit similar to that of 1862 Apollo",
            "orbit_class_range": "a (semi-major axis) > 1.0 AU; q (perihelion) < 1.017 AU"
        }
    },
    "is_sentry_object": false
}